#aV2014  3  5  0  0  0.00000000     288 DD+AD WGS84 FIT  NGA
## 1782 259200.00000000   300.00000000 56721 0.0000000000000
+   31     1  2  3  4  5  7  8  9 10 11 12 13 14 15 16 17 18
+         19 20 21 22 23 24 25 26 27 28 29 30 31 32  0  0  0
+          0  0  0  0  0  0  0  0  0  0  0  0  0  0  0  0  0
+          0  0  0  0  0  0  0  0  0  0  0  0  0  0  0  0  0
+          0  0  0  0  0  0  0  0  0  0  0  0  0  0  0  0  0
++         2  2  2  2  2  2  2  2  2  2  2  2  2  2  2  2  2
++         2  2  2  2  2  2  2  2  2  2  2  2  2  2  0  0  0
++         0  0  0  0  0  0  0  0  0  0  0  0  0  0  0  0  0
++         0  0  0  0  0  0  0  0  0  0  0  0  0  0  0  0  0
++         0  0  0  0  0  0  0  0  0  0  0  0  0  0  0  0  0
%c cc cc ccc ccc cccc cccc cccc cccc ccccc ccccc ccccc ccccc
%c cc cc ccc ccc cccc cccc cccc cccc ccccc ccccc ccccc ccccc
%f  0.0000000  0.000000000  0.00000000000  0.000000000000000
%f  0.0000000  0.000000000  0.00000000000  0.000000000000000
%i    0    0    0    0      0      0      0      0         0
%i    0    0    0    0      0      0      0      0         0
/*      NGA, ST. LOUIS,MO.                                  
/*   EPHEMERIS COMPUTED FROM  1 DAYS OF DATA                
/*   EPOCHA SMOOTHER                                       
/* CCCCCCCCCCCCCCCCCCCCCCCCCCCCCCCCCCCCCCCCCCCCCCCCCCCCCCCCC
*  2014  3  5 19  0  0.00000000
P  1 -18112.812494  -5378.598627  18685.911882      2.545266                    
V  1 -10590.083010 -21299.725069 -16245.684200      0.019426                    
P  2  14704.078209  22397.608708  -1230.186105    482.211253                    
V  2  -1641.823043   3185.735915  30904.062257      0.021678                    
P  3 -19454.037536  -9131.264340 -16255.552077    334.134730                    
V  3  19120.692138  -5024.430458 -20596.481172      0.052370                    
P  4   3612.045313  23230.423316  11816.850915      5.945337                    
V  4 -10662.708017 -11848.793179  26120.349337      0.002260                    
P  5   9073.710902  14029.625639 -20651.587281   -385.747065                    
V  5 -13889.790445  22258.732856   9196.739729      0.017862                    
P  7 -11544.587675   9701.962809 -21769.698973    320.743174                    
V  7 -13713.785917 -24181.736482  -3808.532575      0.041612                    
P  8  -4314.203132  18945.939831 -17656.873905     12.182977                    
V  8 -10255.800323 -20505.398600 -19916.909362      0.001711                    
P  9  -2033.410827  20108.108182 -17675.602220    310.133040                    
V  9 -11752.789569 -17949.721815 -19823.543654      0.028565                    
P 10  -6694.139350  23974.878224  -8967.221812   -116.927254                    
V 10  -8557.073791   7806.369278  28737.271313     -0.015344                    
P 11 -22608.432138  -9690.015223   9804.877972   -469.592726                    
V 11  -6909.514726 -12076.219280 -26345.920851     -0.031474                    
P 12  17080.631243  -2233.732777  20094.716603    190.311333                    
V 12 -12826.227655  22216.914948  13550.667659      0.023699                    
P 13 -23068.968997   5774.523357 -12120.015428     23.257604                    
V 13 -14824.706058  -3326.772715  26790.076924     -0.038896                    
P 14   7593.441488 -14105.002415  21373.678398    193.040494                    
V 14  26520.213513   2615.068027  -7914.810260     -0.032350                    
P 15  25204.623778   4663.335264  -7562.238293   -166.565138                    
V 15  -9373.733593   3423.574062 -29047.951617     -0.021072                    
P 16  -7663.849604 -13907.018806 -21254.278601   -228.993864                    
V 16  15330.709393 -22129.546984   9316.212473      0.015886                    
P 17  -5429.308452  14707.775353  21663.300028    -73.780721                    
V 17 -26877.319943  -1673.711696  -5891.872858     -0.032531                    
P 18  16582.677379 -19309.519035  -6519.480085    305.562868                    
V 18   -874.834810   9805.590834 -29657.604288      0.021950                    
P 19 -24237.265072  -8001.820592  -8253.831592   -442.854362                    
V 19  10332.552087  -1166.195758 -29236.070426     -0.024314                    
P 20 -18050.366319   4837.023836  18656.324173    167.310709                    
V 20   9111.198578 -22535.408241  14582.619639      0.034609                    
P 21  10571.279183 -12046.000332 -20499.763976   -347.606620                    
V 21  14847.645352  23340.517660  -6356.438360     -0.022471                    
P 22   9599.137108 -24234.298035   4842.493370    217.536313                    
V 22   6413.014404  -3214.171328 -30197.817844      0.024120                    
P 23 -26782.435036   -107.202675   -223.470561     -1.344246                    
V 23   -368.566922  -2744.824345  31297.071552     -0.032086                    
P 24  18877.449278  10439.132568  15541.039705    -24.440159                    
V 24   8330.271261  17998.093862 -22096.659885     -0.006225                    
P 25  18115.266366 -14821.685949  12369.048987     17.323074                    
V 25  -6071.919844  14756.870626  26571.569247      0.015623                    
P 26  16527.945118  13141.033509 -16957.444299    147.308967                    
V 26 -20151.987653   -793.369959 -20785.525151     -0.108887                    
P 27 -14876.019234 -12554.344803 -18090.951119    -20.024717                    
V 27  22944.517506  -1598.373637 -17715.892057     -0.005656                    
P 28 -12882.502845  23015.601134   2975.516864    337.337812                    
V 28  -3407.551224   1385.141991 -32108.809326      0.027703                    
P 29  24155.402502  -5353.353693  -9555.656375    515.799191                    
V 29  12065.371045   2983.852675  28736.677229      0.029406                    
P 30 -18048.471713 -11674.340843 -16074.446821      1.967497                    
V 30  -7043.636119 -18765.845121  21526.089094      0.037542                    
P 31  -6067.026294 -24095.006363   9087.043569    333.652115                    
V 31   7385.678758   8954.729427  29483.905947      0.002419                    
P 32 -12533.117587  -9159.544866  21615.662327   -474.680378                    
V 32  15449.220746 -22562.475431    -66.267893      0.069136                    
EOF
